STARLINK-31101          
1 58737U 24005K   26068.81140431  .00005893  00000+0  22919-3 0  9995
2 58737  43.0043 218.9452 0001927 280.2239  79.8395 15.26741486120459
FLOCK 4G-7              
1 62624U 25009R   26068.79996108  .00011422  00000+0  43168-3 0  9991
2 62624  97.3984 150.8270 0001396 336.9783  23.1393 15.27141471 63725
